#aV2013  6 25  0  0  0.00000000     288 DD+AD WGS84 FIT  NGA
## 1746 172800.00000000   300.00000000 56468 0.0000000000000
+   31     1  2  3  4  5  6  7  8  9 10 11 12 13 14 15 16 17
+         18 19 20 21 22 23 24 25 26 27 28 29 31 32  0  0  0
+          0  0  0  0  0  0  0  0  0  0  0  0  0  0  0  0  0
+          0  0  0  0  0  0  0  0  0  0  0  0  0  0  0  0  0
+          0  0  0  0  0  0  0  0  0  0  0  0  0  0  0  0  0
++         2  2  2  2  2  2  2  2  2  2  2  2  2  2  2  2  2
++         2  2  2  2  2  2  2  2  2  2  2  2  2  2  2  0  0
++         0  0  0  0  0  0  0  0  0  0  0  0  0  0  0  0  0
++         0  0  0  0  0  0  0  0  0  0  0  0  0  0  0  0  0
++         0  0  0  0  0  0  0  0  0  0  0  0  0  0  0  0  0
%c cc cc ccc ccc cccc cccc cccc cccc ccccc ccccc ccccc ccccc
%c cc cc ccc ccc cccc cccc cccc cccc ccccc ccccc ccccc ccccc
%f  0.0000000  0.000000000  0.00000000000  0.000000000000000
%f  0.0000000  0.000000000  0.00000000000  0.000000000000000
%i    0    0    0    0      0      0      0      0         0
%i    0    0    0    0      0      0      0      0         0
/*      NGA, ST. LOUIS,MO.                                  
/*   EPHEMERIS COMPUTED FROM  1 DAYS OF DATA
/*   EPOCHA SMOOTHER  
/* CCCCCCCCCCCCCCCCCCCCCCCCCCCCCCCCCCCCCCCCCCCCCCCCCCCCCCCCC
*  2013  6 25 19 15  0.00000000                                                 
P  1  11330.475465 -21451.023623 -10720.534825     41.975160                    
V  1  11548.261034  -7659.712727  27665.224403      0.047185                    
P  2 -21463.534476  10869.227129 -10450.350253    438.760049                    
V  2   7187.308153 -12301.880286 -27506.654049      0.018347                    
P  3  12875.672102  -9095.548662  20837.473476    224.724450                    
V  3  11189.381078  25454.430808   4306.806239      0.048397                    
P  4 -19649.181305    499.162015 -18266.374576    255.494417                    
V  4  14964.673266 -17026.770723 -16547.731768      0.102080                    
P  5 -22589.665459   3767.549022  13547.168250   -397.636100                    
V  5 -15928.235986  -6969.994206 -24432.960229     -0.006306                    
P  6  15752.594656  -1890.155006  21404.235984    171.393493                    
V  6   8102.389790  25800.812636  -3324.725185     -0.171636                    
P  7  -2786.906408 -16496.166223  20595.052350    229.122695                    
V  7  19726.627925 -17106.631353 -11354.879751      0.042121                    
P  8 -12125.674967  -8677.611675  22150.638845      6.986275                    
V  8  21896.045679 -16949.503352   4791.731064      0.001787                    
P  9 -17366.947913  -1178.480975  19526.056417    250.237537                    
V  9  17832.853811 -18867.167591  14234.459193      0.025505                    
P 10 -25135.947409  -9101.248486  -2022.737415    -84.767882                    
V 10   2962.814059  -2231.400658 -30952.096110     -0.013332                    
P 11  11837.741421 -23603.498545  -1186.085017   -394.966722                    
V 11   5112.163244   1623.462769  30196.900362     -0.035412                    
P 12  -7757.744830  12831.823552 -21944.370532    141.336273                    
V 12 -26302.341026  -8755.698344   4386.876673      0.021025                    
P 13  -4508.552836 -26077.086398    942.616846    106.039878                    
V 13   2048.489376  -1685.129837 -32271.738670     -0.036810                    
P 14  14187.568853  14854.981749 -16720.636200    220.005195                    
V 14   2298.434372  21456.312929  20613.784932     -0.003560                    
P 15  -5701.514764  20777.599601  15333.828035   -124.871878                    
V 15  -7878.455640 -18218.954620  21972.681248     -0.016238                    
P 16  22888.926134  -1785.596208  13619.762220   -250.949745                    
V 16  15811.572137   6823.867496 -25295.376371      0.004255                    
P 17 -14484.865003 -15543.891814 -15863.874284      5.337594                    
V 17  -2521.981612 -20361.443245  21720.740315     -0.038638                    
P 18  15633.412716  16058.712548  14929.614696    260.465871                    
V 18 -18179.797425  -2597.721225  22106.700339      0.018322                    
P 19   9787.263221 -16911.683400  17691.062516   -383.900283                    
V 19   5387.844199  22248.396747  18606.966235     -0.029715                    
P 20   1966.750530 -15942.537937 -21327.367290    105.672054                    
V 20  26198.818816   5712.353349  -1797.711922      0.022163                    
P 21   7690.714158  14626.385505  21301.656658   -305.065645                    
V 21 -19158.960796  17488.975707  -5759.405646     -0.020141                    
P 22  23809.297699  10856.023038   5187.696805    173.052380                    
V 22  -7117.666466   1802.768663  29906.477414      0.012781                    
P 23    355.181930 -24845.414453  -8715.224149     72.801613                    
V 23   5621.747205  10269.671805 -29196.452814     -0.035584                    
P 24 -14131.784907  21236.974685  -7333.377049     -8.880082                    
V 24  -8550.011513   4595.531382  29875.031646     -0.005995                    
P 25   6596.629489  16072.666184 -20176.827794    114.032484                    
V 25 -24749.495241  -5900.199507 -12730.804999      0.048261                    
P 26 -13248.017397   7298.195826  21152.852242     69.605188                    
V 26  -5042.715980 -27938.967943   6607.707184      0.163355                    
P 27  13958.870589  -6475.952846  21643.082515     -4.293742                    
V 27   7130.409839  26555.417655   3352.917534     -0.031804                    
P 28 -21304.402866 -13657.612679   8933.516727    270.419413                    
V 28  10421.299735   1844.587317  29445.686274      0.031287                    
P 29   4889.501000  26125.346381   -545.890629    448.139220                    
V 29  -2692.082007   -221.941154 -31845.593966      0.033074                    
P 31  19397.547540  -1471.407829 -18043.242479    318.848501                    
V 31 -16171.570503  16535.825883 -18289.248577      0.011943                    
P 32  11764.639919 -11395.429979 -20681.033864   -559.012674                    
V 32  24577.936898  10513.296377   8655.772115      0.002322                    
EOF
